[{"OBJECT_NAME":"ICEYE-X64","OBJECT_ID":"2026-004L","EPOCH":"2026-03-09T22:08:51.177984","MEAN_MOTION":14.87676909,"ECCENTRICITY":0.00074629,"INCLINATION":97.8018,"RA_OF_ASC_NODE":69.1111,"ARG_OF_PERICENTER":100.9469,"MEAN_ANOMALY":259.2588,"EPHEMERIS_TYPE":0,"CLASSIFICATION_TYPE":"U","NORAD_CAT_ID":67373,"ELEMENT_SET_NO":999,"REV_AT_EPOCH":853,"BSTAR":0.00035385661,"MEAN_MOTION_DOT":3.169e-5,"MEAN_MOTION_DDOT":0},{"OBJECT_NAME":"OPS 0340","OBJECT_ID":"1966-026A","EPOCH":"2026-03-09T21:24:39.157632","MEAN_MOTION":14.60625581,"ECCENTRICITY":0.01463871,"INCLINATION":98.0227,"RA_OF_ASC_NODE":240.1512,"ARG_OF_PERICENTER":195.7309,"MEAN_ANOMALY":163.932,"EPHEMERIS_TYPE":0,"CLASSIFICATION_TYPE":"U","NORAD_CAT_ID":2125,"ELEMENT_SET_NO":999,"REV_AT_EPOCH":14505,"BSTAR":0.00028150195,"MEAN_MOTION_DOT":1.54e-5,"MEAN_MOTION_DDOT":0}]
